INSAT 2R (ARABSAT 1C)
1 21894U 92010B   17010.35269434 -.00000275  00000-0  00000+0 0  9995
2 21894  11.4523  37.8151 0033286 201.4776 147.7802  0.98686826 90221
